[{"OBJECT_NAME":"SL-8 R/B","OBJECT_ID":"1979-089B","EPOCH":"2026-04-15T12:08:12.592320","MEAN_MOTION":14.42374924,"ECCENTRICITY":0.00160587,"INCLINATION":74.0713,"RA_OF_ASC_NODE":22.8917,"ARG_OF_PERICENTER":189.5083,"MEAN_ANOMALY":170.5772,"EPHEMERIS_TYPE":0,"CLASSIFICATION_TYPE":"U","NORAD_CAT_ID":11574,"ELEMENT_SET_NO":999,"REV_AT_EPOCH":44141,"BSTAR":4.6077888e-5,"MEAN_MOTION_DOT":1.26e-6,"MEAN_MOTION_DDOT":0},{"OBJECT_NAME":"SL-14 R/B","OBJECT_ID":"1980-005B","EPOCH":"2026-04-15T12:08:00.965472","MEAN_MOTION":14.90973087,"ECCENTRICITY":0.00167397,"INCLINATION":82.5112,"RA_OF_ASC_NODE":272.3009,"ARG_OF_PERICENTER":44.8794,"MEAN_ANOMALY":315.3775,"EPHEMERIS_TYPE":0,"CLASSIFICATION_TYPE":"U","NORAD_CAT_ID":11672,"ELEMENT_SET_NO":999,"REV_AT_EPOCH":48197,"BSTAR":3.2223511e-5,"MEAN_MOTION_DOT":3.45e-6,"MEAN_MOTION_DDOT":0},{"OBJECT_NAME":"SL-8 R/B","OBJECT_ID":"1981-003B","EPOCH":"2026-04-14T21:00:43.099776","MEAN_MOTION":15.12569913,"ECCENTRICITY":0.0257538,"INCLINATION":82.9369,"RA_OF_ASC_NODE":256.5194,"ARG_OF_PERICENTER":52.9218,"MEAN_ANOMALY":309.5256,"EPHEMERIS_TYPE":0,"CLASSIFICATION_TYPE":"U","NORAD_CAT_ID":12139,"ELEMENT_SET_NO":999,"REV_AT_EPOCH":32014,"BSTAR":0.00026039,"MEAN_MOTION_DOT":0.00010493,"MEAN_MOTION_DDOT":0},{"OBJECT_NAME":"SL-3 R/B","OBJECT_ID":"1981-046B","EPOCH":"2026-04-15T15:09:40.474944","MEAN_MOTION":15.42910675,"ECCENTRICITY":0.0018092,"INCLINATION":81.2299,"RA_OF_ASC_NODE":245.3452,"ARG_OF_PERICENTER":249.6688,"MEAN_ANOMALY":110.2611,"EPHEMERIS_TYPE":0,"CLASSIFICATION_TYPE":"U","NORAD_CAT_ID":12465,"ELEMENT_SET_NO":999,"REV_AT_EPOCH":44412,"BSTAR":0.00016228071,"MEAN_MOTION_DOT":7.202e-5,"MEAN_MOTION_DDOT":0},{"OBJECT_NAME":"SL-3 R/B","OBJECT_ID":"1981-103B","EPOCH":"2026-04-15T14:21:40.698144","MEAN_MOTION":15.21788612,"ECCENTRICITY":0.00137746,"INCLINATION":81.1599,"RA_OF_ASC_NODE":170.131,"ARG_OF_PERICENTER":157.9803,"MEAN_ANOMALY":202.2023,"EPHEMERIS_TYPE":0,"CLASSIFICATION_TYPE":"U","NORAD_CAT_ID":12904,"ELEMENT_SET_NO":999,"REV_AT_EPOCH":97884,"BSTAR":0.00010824482,"MEAN_MOTION_DOT":2.487e-5,"MEAN_MOTION_DDOT":0},{"OBJECT_NAME":"SL-3 R/B","OBJECT_ID":"1982-013B","EPOCH":"2026-04-15T14:12:51.873120","MEAN_MOTION":15.22330066,"ECCENTRICITY":0.00232805,"INCLINATION":81.1713,"RA_OF_ASC_NODE":117.5028,"ARG_OF_PERICENTER":57.6514,"MEAN_ANOMALY":302.6967,"EPHEMERIS_TYPE":0,"CLASSIFICATION_TYPE":"U","NORAD_CAT_ID":13068,"ELEMENT_SET_NO":999,"REV_AT_EPOCH":40996,"BSTAR":9.5952323e-5,"MEAN_MOTION_DOT":2.254e-5,"MEAN_MOTION_DDOT":0},{"OBJECT_NAME":"SL-3 R/B","OBJECT_ID":"1982-039B","EPOCH":"2026-04-15T13:29:31.177824","MEAN_MOTION":15.10276626,"ECCENTRICITY":0.00279449,"INCLINATION":81.152,"RA_OF_ASC_NODE":173.4357,"ARG_OF_PERICENTER":199.7691,"MEAN_ANOMALY":160.2454,"EPHEMERIS_TYPE":0,"CLASSIFICATION_TYPE":"U","NORAD_CAT_ID":13154,"ELEMENT_SET_NO":999,"REV_AT_EPOCH":38720,"BSTAR":4.9870123e-5,"MEAN_MOTION_DOT":8.47e-6,"MEAN_MOTION_DDOT":0},{"OBJECT_NAME":"SL-3 R/B","OBJECT_ID":"1982-079B","EPOCH":"2026-04-15T14:33:32.032800","MEAN_MOTION":15.25244539,"ECCENTRICITY":0.00249405,"INCLINATION":81.1457,"RA_OF_ASC_NODE":149.4773,"ARG_OF_PERICENTER":43.8971,"MEAN_ANOMALY":316.4238,"EPHEMERIS_TYPE":0,"CLASSIFICATION_TYPE":"U","NORAD_CAT_ID":13403,"ELEMENT_SET_NO":999,"REV_AT_EPOCH":38332,"BSTAR":0.00010465656,"MEAN_MOTION_DOT":2.68e-5,"MEAN_MOTION_DDOT":0},{"OBJECT_NAME":"SL-14 R/B","OBJECT_ID":"1982-092B","EPOCH":"2026-04-15T09:39:50.272416","MEAN_MOTION":14.86698678,"ECCENTRICITY":0.00204378,"INCLINATION":82.5646,"RA_OF_ASC_NODE":107.0485,"ARG_OF_PERICENTER":174.8539,"MEAN_ANOMALY":301.405,"EPHEMERIS_TYPE":0,"CLASSIFICATION_TYPE":"U","NORAD_CAT_ID":13553,"ELEMENT_SET_NO":999,"REV_AT_EPOCH":33438,"BSTAR":2.3604103e-5,"MEAN_MOTION_DOT":2.35e-6,"MEAN_MOTION_DDOT":0},{"OBJECT_NAME":"SL-3 R/B","OBJECT_ID":"1983-010B","EPOCH":"2026-04-15T13:34:01.310016","MEAN_MOTION":15.47521548,"ECCENTRICITY":0.00150116,"INCLINATION":81.1017,"RA_OF_ASC_NODE":316.9941,"ARG_OF_PERICENTER":279.3974,"MEAN_ANOMALY":80.5574,"EPHEMERIS_TYPE":0,"CLASSIFICATION_TYPE":"U","NORAD_CAT_ID":13819,"ELEMENT_SET_NO":999,"REV_AT_EPOCH":36364,"BSTAR":0.00014308978,"MEAN_MOTION_DOT":7.416e-5,"MEAN_MOTION_DDOT":0},{"OBJECT_NAME":"SL-3 R/B","OBJECT_ID":"1983-075B","EPOCH":"2026-04-15T13:21:07.751808","MEAN_MOTION":15.39284714,"ECCENTRICITY":0.00232492,"INCLINATION":97.6129,"RA_OF_ASC_NODE":111.5554,"ARG_OF_PERICENTER":97.6448,"MEAN_ANOMALY":262.7439,"EPHEMERIS_TYPE":0,"CLASSIFICATION_TYPE":"U","NORAD_CAT_ID":14208,"ELEMENT_SET_NO":999,"REV_AT_EPOCH":33582,"BSTAR":0.00016346132,"MEAN_MOTION_DOT":6.338e-5,"MEAN_MOTION_DDOT":0},{"OBJECT_NAME":"COSMOS 1536","OBJECT_ID":"1984-013A","EPOCH":"2026-04-15T14:50:08.032128","MEAN_MOTION":15.24338984,"ECCENTRICITY":0.00153932,"INCLINATION":82.5432,"RA_OF_ASC_NODE":71.1174,"ARG_OF_PERICENTER":145.7791,"MEAN_ANOMALY":214.4442,"EPHEMERIS_TYPE":0,"CLASSIFICATION_TYPE":"U","NORAD_CAT_ID":14699,"ELEMENT_SET_NO":999,"REV_AT_EPOCH":27824,"BSTAR":0.00014509769,"MEAN_MOTION_DOT":3.593e-5,"MEAN_MOTION_DDOT":0},{"OBJECT_NAME":"SL-14 R/B","OBJECT_ID":"1984-027B","EPOCH":"2026-04-15T12:37:48.321408","MEAN_MOTION":14.86015823,"ECCENTRICITY":0.00172798,"INCLINATION":82.5441,"RA_OF_ASC_NODE":210.468,"ARG_OF_PERICENTER":207.1128,"MEAN_ANOMALY":152.9188,"EPHEMERIS_TYPE":0,"CLASSIFICATION_TYPE":"U","NORAD_CAT_ID":14820,"ELEMENT_SET_NO":999,"REV_AT_EPOCH":25310,"BSTAR":2.5003086e-5,"MEAN_MOTION_DOT":2.43e-6,"MEAN_MOTION_DDOT":0},{"OBJECT_NAME":"SL-8 R/B","OBJECT_ID":"1985-006B","EPOCH":"2026-04-15T14:42:00.965952","MEAN_MOTION":14.37807754,"ECCENTRICITY":0.00172149,"INCLINATION":74.0464,"RA_OF_ASC_NODE":193.2079,"ARG_OF_PERICENTER":99.0935,"MEAN_ANOMALY":4.1509,"EPHEMERIS_TYPE":0,"CLASSIFICATION_TYPE":"U","NORAD_CAT_ID":15483,"ELEMENT_SET_NO":999,"REV_AT_EPOCH":15933,"BSTAR":4.3946554e-5,"MEAN_MOTION_DOT":1.06e-6,"MEAN_MOTION_DDOT":0},{"OBJECT_NAME":"SL-12 R/B(2)","OBJECT_ID":"1985-042D","EPOCH":"2026-04-15T12:09:30.885408","MEAN_MOTION":14.21992948,"ECCENTRICITY":0.0033089,"INCLINATION":71.1105,"RA_OF_ASC_NODE":9.9453,"ARG_OF_PERICENTER":67.0161,"MEAN_ANOMALY":105.3923,"EPHEMERIS_TYPE":0,"CLASSIFICATION_TYPE":"U","NORAD_CAT_ID":15772,"ELEMENT_SET_NO":999,"REV_AT_EPOCH":11962,"BSTAR":5.5473552e-5,"MEAN_MOTION_DOT":7.6e-7,"MEAN_MOTION_DDOT":0},{"OBJECT_NAME":"SL-14 R/B","OBJECT_ID":"1985-069B","EPOCH":"2026-04-15T10:22:44.232960","MEAN_MOTION":14.8647093,"ECCENTRICITY":0.00203173,"INCLINATION":82.5291,"RA_OF_ASC_NODE":350.3929,"ARG_OF_PERICENTER":72.1896,"MEAN_ANOMALY":288.1535,"EPHEMERIS_TYPE":0,"CLASSIFICATION_TYPE":"U","NORAD_CAT_ID":15945,"ELEMENT_SET_NO":999,"REV_AT_EPOCH":17829,"BSTAR":2.385456e-5,"MEAN_MOTION_DOT":2.36e-6,"MEAN_MOTION_DDOT":0},{"OBJECT_NAME":"SL-16 R/B","OBJECT_ID":"1985-097B","EPOCH":"2026-04-15T15:45:13.365216","MEAN_MOTION":14.16605778,"ECCENTRICITY":0.00086052,"INCLINATION":71.003,"RA_OF_ASC_NODE":62.7236,"ARG_OF_PERICENTER":214.4894,"MEAN_ANOMALY":318.14,"EPHEMERIS_TYPE":0,"CLASSIFICATION_TYPE":"U","NORAD_CAT_ID":16182,"ELEMENT_SET_NO":999,"REV_AT_EPOCH":9246,"BSTAR":0.0001258059,"MEAN_MOTION_DOT":2.03e-6,"MEAN_MOTION_DDOT":0}]
