{"fetched_at":"2026-04-16T02:30:09Z","count":2713,"tles":[{"name":"SL-3 R/B","line1":"1 13403U 82079B   26105.60662075  .00002680  00000+0  10466-3 0  9998","line2":"2 13403  81.1457 149.4773 0024940  43.8971 316.4238 15.25244539383321","category":"Other"},{"name":"SL-16 R/B","line1":"1 16182U 85097B   26105.65640469  .00000203  00000+0  12581-3 0  9995","line2":"2 16182  71.0030  62.7236 0008605 214.4894 318.1400 14.16605778 92461","category":"Other"},{"name":"SL-8 R/B","line1":"1 11574U 79089B   26105.50570130  .00000126  00000+0  46078-4 0  9993","line2":"2 11574  74.0713  22.8917 0016058 189.5083 170.5772 14.42374924441418","category":"Other"},{"name":"SL-12 R/B(2)","line1":"1 15772U 85042D   26105.50660747  .00000076  00000+0  55474-4 0  9991","line2":"2 15772  71.1105   9.9453 0033089  67.0161 105.3923 14.21992948119624","category":"Other"},{"name":"SL-3 R/B","line1":"1 12465U 81046B   26105.63171846  .00007202  00000+0  16228-3 0  9999","line2":"2 12465  81.2299 245.3452 0018092 249.6688 110.2611 15.42910675444126","category":"Other"},{"name":"SL-14 R/B","line1":"1 13553U 82092B   26105.40266519  .00000235  00000+0  23604-4 0  9993","line2":"2 13553  82.5646 107.0485 0020437 174.8539 301.4050 14.86698678334385","category":"Other"},{"name":"SL-8 R/B","line1":"1 15483U 85006B   26105.61251118  .00000106  00000+0  43947-4 0  9996","line2":"2 15483  74.0464 193.2079 0017214  99.0935   4.1509 14.37807754159335","category":"Other"},{"name":"SL-3 R/B","line1":"1 13068U 82013B   26105.59226705  .00002254  00000+0  95952-4 0  9998","line2":"2 13068  81.1713 117.5028 0023280  57.6514 302.6967 15.22330066409967","category":"Other"},{"name":"COSMOS 1536","line1":"1 14699U 84013A   26105.61814852  .00003593  00000+0  14510-3 0  9997","line2":"2 14699  82.5432  71.1174 0015393 145.7791 214.4442 15.24338984278242","category":"Other"},{"name":"SL-14 R/B","line1":"1 11672U 80005B   26105.50556673  .00000345  00000+0  32224-4 0  9999","line2":"2 11672  82.5112 272.3009 0016739  44.8794 315.3775 14.90973087481971","category":"Other"},{"name":"SL-3 R/B","line1":"1 12904U 81103B   26105.59838771  .00002487  00000+0  10824-3 0  9999","line2":"2 12904  81.1599 170.1310 0013774 157.9803 202.2023 15.21788612978847","category":"Other"},{"name":"SL-3 R/B","line1":"1 14208U 83075B   26105.55633972  .00006338  00000+0  16346-3 0  9994","line2":"2 14208  97.6129 111.5554 0023249  97.6448 262.7439 15.39284714335829","category":"Other"},{"name":"SL-8 R/B","line1":"1 12139U 81003B   26104.87549884  .00010493  00000+0  26039-3 0  9993","line2":"2 12139  82.9369 256.5194 0257538  52.9218 309.5256 15.12569913320146","category":"Other"},{"name":"SL-14 R/B","line1":"1 14820U 84027B   26105.52625372  .00000243  00000+0  25003-4 0  9994","line2":"2 14820  82.5441 210.4680 0017279 207.1128 152.9188 14.86015823253102","category":"Other"},{"name":"SL-14 R/B","line1":"1 15945U 85069B   26105.43245640  .00000236  00000+0  23855-4 0  9991","line2":"2 15945  82.5291 350.3929 0020317  72.1896 288.1535 14.86470930178291","category":"Other"},{"name":"SL-3 R/B","line1":"1 13154U 82039B   26105.56216641  .00000847  00000+0  49870-4 0  9991","line2":"2 13154  81.1520 173.4357 0027944 199.7691 160.2454 15.10276626387209","category":"Other"},{"name":"SL-3 R/B","line1":"1 13819U 83010B   26105.56529294  .00007416  00000+0  14309-3 0  9997","line2":"2 13819  81.1017 316.9941 0015011 279.3974  80.5574 15.47521548363647","category":"Other"}]}